GLOBALSTAR M075 [+]     
1 37192U 10054E   23337.51617899 -.00000092  00000+0  63231-4 0  9996
2 37192  51.9945  91.7023 0000899 111.2716 328.8735 12.62267887605077
GLOBALSTAR M073 [+]     
1 37193U 10054F   23337.27817734 -.00000076  00000+0  15392-3 0  9996
2 37193  52.0086   5.8173 0000276 110.0525 329.9769 12.62270037606871
GLOBALSTAR M083 [+]     
1 37739U 11033A   23337.38891194 -.00000082  00000+0  12268-3 0  9990
2 37739  51.9877 314.9786 0000680  60.6754 103.5492 12.62263346575903
GLOBALSTAR M088 [+]     
1 37740U 11033B   23337.12514094 -.00000079  00000+0  13839-3 0  9996
2 37740  51.9725 221.7468 0001243  76.6227  88.2520 12.62268256571415
GLOBALSTAR M091 [+]     
1 37741U 11033C   23337.75304521 -.00000097  00000+0  39915-4 0  9992
2 37741  51.9975 182.3857 0001413  87.8945 350.8635 12.62269312572541
GLOBALSTAR M085 [+]     
1 37742U 11033D   23337.40960865 -.00000099  00000+0  24717-4 0  9990
2 37742  51.9844 134.9647 0001297  99.1247 278.5182 12.62265648572752
GLOBALSTAR M081 [+]     
1 37743U 11033E   23337.86053167 -.00000093  00000+0  60135-4 0  9997
2 37743  51.9935 136.0320 0001355 107.7794  40.0142 12.62267569573330
GLOBALSTAR M089 [+]     
1 37744U 11033F   23337.82684868 -.00000101  00000+0  17636-4 0  9990
2 37744  51.9926  90.4661 0000709 131.9714  42.9308 12.62269788574044
